start=new Date('2022-12-09T00:00:00.000Z').valueOf();
sats=[{"ARG_OF_PERICENTER":"268.6978","APOAPSIS":"574.130","TIME_SYSTEM":"UTC","BSTAR":"0.00045245000000","RCS_SIZE":"LARGE","TLE_LINE2":"2 49137  70.0022  27.4838 0003063 268.6978  91.3830 14.98348366 68669","TLE_LINE1":"1 49137U 21082H   22342.62106857  .00005312  00000-0  45245-3 0  9999","REV_AT_EPOCH":"6866","DECAY_DATE":null,"MEAN_MOTION":"14.98348366","CLASSIFICATION_TYPE":"U","ECCENTRICITY":"0.00030630","ELEMENT_SET_NO":"999","OBJECT_NAME":"STARLINK-3055","FILE":"3684925","SITE":"AFWTR","OBJECT_ID":"2021-082H","MEAN_MOTION_DDOT":"0.0000000000000","REF_FRAME":"TEME","MEAN_MOTION_DOT":"0.00005312","GP_ID":"219807211","CENTER_NAME":"EARTH","INCLINATION":"70.0022","SEMIMAJOR_AXIS":"6950.136","COUNTRY_CODE":"US","RA_OF_ASC_NODE":"27.4838","PERIOD":"96.106","MEAN_ELEMENT_THEORY":"SGP4","PERIAPSIS":"569.872","MEAN_ANOMALY":"91.3830","EPOCH":"2022-12-08T14:54:20.324448","EPHEMERIS_TYPE":"0","LAUNCH_DATE":"2021-09-14","NORAD_CAT_ID":"49137","OBJECT_TYPE":"PAYLOAD"},{"EPOCH":"2022-12-08T10:52:05.905632","PERIAPSIS":"569.660","MEAN_ANOMALY":"107.4672","LAUNCH_DATE":"2021-09-14","EPHEMERIS_TYPE":"0","OBJECT_TYPE":"PAYLOAD","NORAD_CAT_ID":"49138","CENTER_NAME":"EARTH","SEMIMAJOR_AXIS":"6950.123","COUNTRY_CODE":"US","INCLINATION":"70.0013","MEAN_ELEMENT_THEORY":"SGP4","RA_OF_ASC_NODE":"47.9136","PERIOD":"96.106","GP_ID":"219786024","REF_FRAME":"TEME","MEAN_MOTION_DOT":"0.00015365","SITE":"AFWTR","OBJECT_ID":"2021-082J","MEAN_MOTION_DDOT":"0.0000000000000","ELEMENT_SET_NO":"999","ECCENTRICITY":"0.00033490","OBJECT_NAME":"STARLINK-3058","FILE":"3684899","TLE_LINE1":"1 49138U 21082J   22342.45284613  .00015365  00000-0  12919-2 0  9998","REV_AT_EPOCH":"6814","CLASSIFICATION_TYPE":"U","DECAY_DATE":null,"MEAN_MOTION":"14.98352731","APOAPSIS":"574.315","ARG_OF_PERICENTER":"252.6121","TIME_SYSTEM":"UTC","BSTAR":"0.00129190000000","RCS_SIZE":"LARGE","TLE_LINE2":"2 49138  70.0013  47.9136 0003349 252.6121 107.4672 14.98352731 68145"},{"GP_ID":"219774528","REF_FRAME":"TEME","MEAN_MOTION_DOT":"0.00002338","MEAN_ANOMALY":"85.7474","PERIAPSIS":"569.819","EPOCH":"2022-12-08T11:43:58.325664","OBJECT_TYPE":"PAYLOAD","NORAD_CAT_ID":"49139","EPHEMERIS_TYPE":"0","LAUNCH_DATE":"2021-09-14","CENTER_NAME":"EARTH","RA_OF_ASC_NODE":"7.8165","PERIOD":"96.106","MEAN_ELEMENT_THEORY":"SGP4","INCLINATION":"70.0026","COUNTRY_CODE":"US","SEMIMAJOR_AXIS":"6950.158","TLE_LINE1":"1 49139U 21082K   22342.48886951  .00002338  00000-0  20361-3 0  9992","CLASSIFICATION_TYPE":"U","DECAY_DATE":null,"MEAN_MOTION":"14.98341247","REV_AT_EPOCH":"6913","TIME_SYSTEM":"UTC","ARG_OF_PERICENTER":"274.3323","APOAPSIS":"574.227","RCS_SIZE":"LARGE","TLE_LINE2":"2 49139  70.0026   7.8165 0003171 274.3323  85.7474 14.98341247 69133","BSTAR":"0.00020361000000","SITE":"AFWTR","MEAN_MOTION_DDOT":"0.0000000000000","OBJECT_ID":"2021-082K","OBJECT_NAME":"STARLINK-3057","ECCENTRICITY":"0.00031710","ELEMENT_SET_NO":"999","FILE":"3684614"},{"MEAN_MOTION_DOT":"0.00012255","REF_FRAME":"TEME","GP_ID":"219775279","INCLINATION":"70.0038","SEMIMAJOR_AXIS":"6950.138","COUNTRY_CODE":"US","PERIOD":"96.106","RA_OF_ASC_NODE":"8.1755","MEAN_ELEMENT_THEORY":"SGP4","CENTER_NAME":"EARTH","EPHEMERIS_TYPE":"0","LAUNCH_DATE":"2021-09-14","NORAD_CAT_ID":"49140","OBJECT_TYPE":"PAYLOAD","PERIAPSIS":"569.547","EPOCH":"2022-12-08T08:17:59.780256","MEAN_ANOMALY":"85.7659","BSTAR":"0.00103260000000","RCS_SIZE":"LARGE","TLE_LINE2":"2 49140  70.0038   8.1755 0003534 274.3096  85.7659 14.98347781 69119","ARG_OF_PERICENTER":"274.3096","APOAPSIS":"574.459","TIME_SYSTEM":"UTC","REV_AT_EPOCH":"6911","MEAN_MOTION":"14.98347781","DECAY_DATE":null,"CLASSIFICATION_TYPE":"U","TLE_LINE1":"1 49140U 21082L   22342.34583079  .00012255  00000-0  10326-2 0  9992","FILE":"3684614","ECCENTRICITY":"0.00035340","ELEMENT_SET_NO":"999","OBJECT_NAME":"STARLINK-3118","OBJECT_ID":"2021-082L","MEAN_MOTION_DDOT":"0.0000000000000","SITE":"AFWTR"},{"INCLINATION":"70.0027","SEMIMAJOR_AXIS":"6950.154","COUNTRY_CODE":"US","PERIOD":"96.106","RA_OF_ASC_NODE":"47.9080","MEAN_ELEMENT_THEORY":"SGP4","CENTER_NAME":"EARTH","EPHEMERIS_TYPE":"0","LAUNCH_DATE":"2021-09-14","NORAD_CAT_ID":"49141","OBJECT_TYPE":"PAYLOAD","PERIAPSIS":"569.730","EPOCH":"2022-12-08T10:45:13.804416","MEAN_ANOMALY":"102.7950","MEAN_MOTION_DOT":"0.00003246","REF_FRAME":"TEME","GP_ID":"219775522","FILE":"3684614","ECCENTRICITY":"0.00032940","ELEMENT_SET_NO":"999","OBJECT_NAME":"STARLINK-3093","OBJECT_ID":"2021-082M","MEAN_MOTION_DDOT":"0.0000000000000","SITE":"AFWTR","BSTAR":"0.00027958000000","TLE_LINE2":"2 49141  70.0027  47.9080 0003294 257.2841 102.7950 14.98342448 69345","RCS_SIZE":"LARGE","ARG_OF_PERICENTER":"257.2841","APOAPSIS":"574.309","TIME_SYSTEM":"UTC","REV_AT_EPOCH":"6934","DECAY_DATE":null,"MEAN_MOTION":"14.98342448","CLASSIFICATION_TYPE":"U","TLE_LINE1":"1 49141U 21082M   22342.44807644  .00003246  00000-0  27958-3 0  9991"},{"RCS_SIZE":"LARGE","TLE_LINE2":"2 49142  70.0026   7.5152 0003182 282.3439  77.7364 14.98344841 69153","BSTAR":"0.00025293000000","TIME_SYSTEM":"UTC","APOAPSIS":"574.224","ARG_OF_PERICENTER":"282.3439","MEAN_MOTION":"14.98344841","DECAY_DATE":null,"CLASSIFICATION_TYPE":"U","REV_AT_EPOCH":"6915","TLE_LINE1":"1 49142U 21082N   22342.60807890  .00002927  00000-0  25293-3 0  9998","FILE":"3684925","OBJECT_NAME":"STARLINK-3042","ELEMENT_SET_NO":"999","ECCENTRICITY":"0.00031820","MEAN_MOTION_DDOT":"0.0000000000000","OBJECT_ID":"2021-082N","SITE":"AFWTR","MEAN_MOTION_DOT":"0.00002927","REF_FRAME":"TEME","GP_ID":"219807963","MEAN_ELEMENT_THEORY":"SGP4","RA_OF_ASC_NODE":"7.5152","PERIOD":"96.106","SEMIMAJOR_AXIS":"6950.147","COUNTRY_CODE":"US","INCLINATION":"70.0026","CENTER_NAME":"EARTH","NORAD_CAT_ID":"49142","OBJECT_TYPE":"PAYLOAD","LAUNCH_DATE":"2021-09-14","EPHEMERIS_TYPE":"0","MEAN_ANOMALY":"77.7364","PERIAPSIS":"569.800","EPOCH":"2022-12-08T14:35:38.016960"},{"INCLINATION":"70.0002","SEMIMAJOR_AXIS":"6950.192","COUNTRY_CODE":"US","RA_OF_ASC_NODE":"27.4757","PERIOD":"96.107","MEAN_ELEMENT_THEORY":"SGP4","CENTER_NAME":"EARTH","EPHEMERIS_TYPE":"0","LAUNCH_DATE":"2021-09-14","NORAD_CAT_ID":"49143","OBJECT_TYPE":"PAYLOAD","EPOCH":"2022-12-08T14:47:28.776192","PERIAPSIS":"569.769","MEAN_ANOMALY":"115.3572","MEAN_MOTION_DOT":"0.00000952","REF_FRAME":"TEME","GP_ID":"219808714","FILE":"3684925","ECCENTRICITY":"0.00032920","ELEMENT_SET_NO":"999","OBJECT_NAME":"STARLINK-3109","OBJECT_ID":"2021-082P","MEAN_MOTION_DDOT":"0.0000000000000","SITE":"AFWTR","BSTAR":"0.00008755500000","TLE_LINE2":"2 49143  70.0002  27.4757 0003292 244.7246 115.3572 14.98330295 69776","RCS_SIZE":"LARGE","ARG_OF_PERICENTER":"244.7246","APOAPSIS":"574.345","TIME_SYSTEM":"UTC","REV_AT_EPOCH":"6977","CLASSIFICATION_TYPE":"U","DECAY_DATE":null,"MEAN_MOTION":"14.98330295","TLE_LINE1":"1 49143U 21082P   22342.61630528  .00000952  00000-0  87555-4 0  9998"},{"FILE":"3684869","ECCENTRICITY":"0.00029430","ELEMENT_SET_NO":"999","OBJECT_NAME":"STARLINK-3100","OBJECT_ID":"2021-082Q","MEAN_MOTION_DDOT":"0.0000000000000","SITE":"AFWTR","BSTAR":"0.00017072000000","TLE_LINE2":"2 49144  70.0004  47.9286 0002943 262.5080  97.5745 14.98338544 68147","RCS_SIZE":"LARGE","ARG_OF_PERICENTER":"262.5080","APOAPSIS":"574.077","TIME_SYSTEM":"UTC","REV_AT_EPOCH":"6814","DECAY_DATE":null,"MEAN_MOTION":"14.98338544","CLASSIFICATION_TYPE":"U","TLE_LINE1":"1 49144U 21082Q   22342.44330230  .00001945  00000-0  17072-3 0  9996","INCLINATION":"70.0004","SEMIMAJOR_AXIS":"6950.166","COUNTRY_CODE":"US","RA_OF_ASC_NODE":"47.9286","PERIOD":"96.106","MEAN_ELEMENT_THEORY":"SGP4","CENTER_NAME":"EARTH","EPHEMERIS_TYPE":"0","LAUNCH_DATE":"2021-09-14","OBJECT_TYPE":"PAYLOAD","NORAD_CAT_ID":"49144","EPOCH":"2022-12-08T10:38:21.318720","PERIAPSIS":"569.986","MEAN_ANOMALY":"97.5745","MEAN_MOTION_DOT":"0.00001945","REF_FRAME":"TEME","GP_ID":"219785127"},{"CENTER_NAME":"EARTH","MEAN_ELEMENT_THEORY":"SGP4","RA_OF_ASC_NODE":"7.0457","PERIOD":"96.105","SEMIMAJOR_AXIS":"6950.120","COUNTRY_CODE":"US","INCLINATION":"70.0018","PERIAPSIS":"569.621","MEAN_ANOMALY":"78.0991","EPOCH":"2022-12-08T19:03:26.003808","NORAD_CAT_ID":"49145","OBJECT_TYPE":"PAYLOAD","LAUNCH_DATE":"2021-09-14","EPHEMERIS_TYPE":"0","REF_FRAME":"TEME","MEAN_MOTION_DOT":"-0.00002065","GP_ID":"219807212","OBJECT_NAME":"STARLINK-3119","ELEMENT_SET_NO":"999","ECCENTRICITY":"0.00034020","FILE":"3684925","SITE":"AFWTR","MEAN_MOTION_DDOT":"0.0000000000000","OBJECT_ID":"2021-082R","TIME_SYSTEM":"UTC","APOAPSIS":"574.349","ARG_OF_PERICENTER":"281.9787","TLE_LINE2":"2 49145  70.0018   7.0457 0003402 281.9787  78.0991 14.98353555 69170","RCS_SIZE":"LARGE","BSTAR":"-0.00016524000000","TLE_LINE1":"1 49145U 21082R   22342.79405097 -.00002065  00000-0 -16524-3 0  9996","CLASSIFICATION_TYPE":"U","DECAY_DATE":null,"MEAN_MOTION":"14.98353555","REV_AT_EPOCH":"6917"},{"REF_FRAME":"TEME","MEAN_MOTION_DOT":"0.00005753","GP_ID":"219808464","CENTER_NAME":"EARTH","PERIOD":"96.106","RA_OF_ASC_NODE":"27.5104","MEAN_ELEMENT_THEORY":"SGP4","INCLINATION":"70.0024","COUNTRY_CODE":"US","SEMIMAJOR_AXIS":"6950.158","EPOCH":"2022-12-08T14:40:36.643872","PERIAPSIS":"569.947","MEAN_ANOMALY":"88.0414","OBJECT_TYPE":"PAYLOAD","NORAD_CAT_ID":"49146","EPHEMERIS_TYPE":"0","LAUNCH_DATE":"2021-09-14","TIME_SYSTEM":"UTC","ARG_OF_PERICENTER":"272.0403","APOAPSIS":"574.100","TLE_LINE2":"2 49146  70.0024  27.5104 0002988 272.0403  88.0414 14.98341190 69812","RCS_SIZE":"LARGE","BSTAR":"0.00048938000000","TLE_LINE1":"1 49146U 21082S   22342.61153523  .00005753  00000-0  48938-3 0  9991","DECAY_DATE":null,"CLASSIFICATION_TYPE":"U","MEAN_MOTION":"14.98341190","REV_AT_EPOCH":"6981","OBJECT_NAME":"STARLINK-3116","ECCENTRICITY":"0.00029880","ELEMENT_SET_NO":"999","FILE":"3684925","SITE":"AFWTR","MEAN_MOTION_DDOT":"0.0000000000000","OBJECT_ID":"2021-082S"}];
